[
    {
        "Altitude(m)": 607895.7847164437,
        "Argument of Periapsis(deg)": 0.0,
        "Eccentricity": 0.0,
        "Inclination(deg)": 60.0,
        "Latitude(deg)": 40.998251105133754,
        "Longitude(deg)": -109.91130992315469,
        "Mean Anomaly(deg)": 130.90910000000005,
        "RAAN(deg)": 200.0,
        "Satellite Name": "Test1 888",
        "Satellite Number": 888,
        "Semi-Major Axis(m)": 6980739.136638005,
        "Time(s)": 0
    },
    {
        "Altitude(m)": 607795.0974767848,
        "Argument of Periapsis(deg)": 0.00010418945913296404,
        "Eccentricity": 0.0,
        "Inclination(deg)": 60.0,
        "Latitude(deg)": 40.53057491176315,
        "Longitude(deg)": -109.41471746927535,
        "Mean Anomaly(deg)": 131.5292061454618,
        "RAAN(deg)": 199.99957995086027,
        "Satellite Name": "Test1 888",
        "Satellite Number": 888,
        "Semi-Major Axis(m)": 6980739.136638005,
        "Time(s)": 10
    }
]